CCSDS_OMM_VERS = 2.0
CREATION_DATE  = 
ORIGINATOR     = 

OBJECT_NAME    = TWILIGHT F
OBJECT_ID      = 2026-004F
CENTER_NAME    = EARTH
REF_FRAME      = TEME
TIME_SYSTEM    = UTC
MEAN_ELEMENT_THEORY = SGP/SGP4

EPOCH          = 2026-01-24T04:41:58.283808
MEAN_MOTION    = 14.87202803
ECCENTRICITY   = .0006773
INCLINATION    = 97.8021
RA_OF_ASC_NODE = 25.1417
ARG_OF_PERICENTER = 241.0857
MEAN_ANOMALY   = 118.9680

EPHEMERIS_TYPE = 0
CLASSIFICATION_TYPE = U
NORAD_CAT_ID   = 67368
ELEMENT_SET_NO = 999
REV_AT_EPOCH   = 188
BSTAR          = .88862E-3
MEAN_MOTION_DOT = .7952E-4
MEAN_MOTION_DDOT = 0

CCSDS_OMM_VERS = 2.0
CREATION_DATE  = 
ORIGINATOR     = 

OBJECT_NAME    = TWILIGHT G
OBJECT_ID      = 2026-004G
CENTER_NAME    = EARTH
REF_FRAME      = TEME
TIME_SYSTEM    = UTC
MEAN_ELEMENT_THEORY = SGP/SGP4

EPOCH          = 2026-01-24T04:41:03.031872
MEAN_MOTION    = 14.87230837
ECCENTRICITY   = .0005854
INCLINATION    = 97.7950
RA_OF_ASC_NODE = 25.1413
ARG_OF_PERICENTER = 256.5215
MEAN_ANOMALY   = 103.5349

EPHEMERIS_TYPE = 0
CLASSIFICATION_TYPE = U
NORAD_CAT_ID   = 67369
ELEMENT_SET_NO = 999
REV_AT_EPOCH   = 188
BSTAR          = .55032E-3
MEAN_MOTION_DOT = .4905E-4
MEAN_MOTION_DDOT = 0

CCSDS_OMM_VERS = 2.0
CREATION_DATE  = 
ORIGINATOR     = 

OBJECT_NAME    = TWILIGHT H
OBJECT_ID      = 2026-004H
CENTER_NAME    = EARTH
REF_FRAME      = TEME
TIME_SYSTEM    = UTC
MEAN_ELEMENT_THEORY = SGP/SGP4

EPOCH          = 2026-01-24T04:40:30.454752
MEAN_MOTION    = 14.87282966
ECCENTRICITY   = .0005549
INCLINATION    = 97.7950
RA_OF_ASC_NODE = 25.1412
ARG_OF_PERICENTER = 257.5834
MEAN_ANOMALY   = 102.4761

EPHEMERIS_TYPE = 0
CLASSIFICATION_TYPE = U
NORAD_CAT_ID   = 67370
ELEMENT_SET_NO = 999
REV_AT_EPOCH   = 188
BSTAR          = .60855E-3
MEAN_MOTION_DOT = .5437E-4
MEAN_MOTION_DDOT = 0

CCSDS_OMM_VERS = 2.0
CREATION_DATE  = 
ORIGINATOR     = 

OBJECT_NAME    = TWILIGHT J
OBJECT_ID      = 2026-004J
CENTER_NAME    = EARTH
REF_FRAME      = TEME
TIME_SYSTEM    = UTC
MEAN_ELEMENT_THEORY = SGP/SGP4

EPOCH          = 2026-01-24T04:36:35.621280
MEAN_MOTION    = 14.87647762
ECCENTRICITY   = .0004619
INCLINATION    = 97.7991
RA_OF_ASC_NODE = 25.1456
ARG_OF_PERICENTER = 240.4000
MEAN_ANOMALY   = 119.6757

EPHEMERIS_TYPE = 0
CLASSIFICATION_TYPE = U
NORAD_CAT_ID   = 67371
ELEMENT_SET_NO = 999
REV_AT_EPOCH   = 188
BSTAR          = .11467E-2
MEAN_MOTION_DOT = .10392E-3
MEAN_MOTION_DDOT = 0

CCSDS_OMM_VERS = 2.0
CREATION_DATE  = 
ORIGINATOR     = 

OBJECT_NAME    = TWILIGHT K
OBJECT_ID      = 2026-004K
CENTER_NAME    = EARTH
REF_FRAME      = TEME
TIME_SYSTEM    = UTC
MEAN_ELEMENT_THEORY = SGP/SGP4

EPOCH          = 2026-01-24T02:55:42.046752
MEAN_MOTION    = 14.87932283
ECCENTRICITY   = .0002963
INCLINATION    = 97.7969
RA_OF_ASC_NODE = 25.0819
ARG_OF_PERICENTER = 234.1198
MEAN_ANOMALY   = 125.9744

EPHEMERIS_TYPE = 0
CLASSIFICATION_TYPE = U
NORAD_CAT_ID   = 67372
ELEMENT_SET_NO = 999
REV_AT_EPOCH   = 187
BSTAR          = .54232E-3
MEAN_MOTION_DOT = .4917E-4
MEAN_MOTION_DDOT = 0

CCSDS_OMM_VERS = 2.0
CREATION_DATE  = 
ORIGINATOR     = 

OBJECT_NAME    = TWILIGHT L
OBJECT_ID      = 2026-004L
CENTER_NAME    = EARTH
REF_FRAME      = TEME
TIME_SYSTEM    = UTC
MEAN_ELEMENT_THEORY = SGP/SGP4

EPOCH          = 2026-01-24T04:37:18.549984
MEAN_MOTION    = 14.87536694
ECCENTRICITY   = .0004603
INCLINATION    = 97.7984
RA_OF_ASC_NODE = 25.1448
ARG_OF_PERICENTER = 245.6386
MEAN_ANOMALY   = 114.4350

EPHEMERIS_TYPE = 0
CLASSIFICATION_TYPE = U
NORAD_CAT_ID   = 67373
ELEMENT_SET_NO = 999
REV_AT_EPOCH   = 188
BSTAR          = .52159E-3
MEAN_MOTION_DOT = .4681E-4
MEAN_MOTION_DDOT = 0

CCSDS_OMM_VERS = 2.0
CREATION_DATE  = 
ORIGINATOR     = 

OBJECT_NAME    = TWILIGHT M
OBJECT_ID      = 2026-004M
CENTER_NAME    = EARTH
REF_FRAME      = TEME
TIME_SYSTEM    = UTC
MEAN_ELEMENT_THEORY = SGP/SGP4

EPOCH          = 2026-01-24T04:33:28.160064
MEAN_MOTION    = 14.87879755
ECCENTRICITY   = .0003223
INCLINATION    = 97.7968
RA_OF_ASC_NODE = 25.1460
ARG_OF_PERICENTER = 234.7053
MEAN_ANOMALY   = 125.3862

EPHEMERIS_TYPE = 0
CLASSIFICATION_TYPE = U
NORAD_CAT_ID   = 67374
ELEMENT_SET_NO = 999
REV_AT_EPOCH   = 188
BSTAR          = .61855E-3
MEAN_MOTION_DOT = .5609E-4
MEAN_MOTION_DDOT = 0

CCSDS_OMM_VERS = 2.0
CREATION_DATE  = 
ORIGINATOR     = 

OBJECT_NAME    = TWILIGHT N
OBJECT_ID      = 2026-004N
CENTER_NAME    = EARTH
REF_FRAME      = TEME
TIME_SYSTEM    = UTC
MEAN_ELEMENT_THEORY = SGP/SGP4

EPOCH          = 2026-01-24T02:56:18.037536
MEAN_MOTION    = 14.87904751
ECCENTRICITY   = .000377
INCLINATION    = 97.8004
RA_OF_ASC_NODE = 25.0842
ARG_OF_PERICENTER = 228.1251
MEAN_ANOMALY   = 131.9644

EPHEMERIS_TYPE = 0
CLASSIFICATION_TYPE = U
NORAD_CAT_ID   = 67375
ELEMENT_SET_NO = 999
REV_AT_EPOCH   = 187
BSTAR          = .63466E-3
MEAN_MOTION_DOT = .576E-4
MEAN_MOTION_DDOT = 0

CCSDS_OMM_VERS = 2.0
CREATION_DATE  = 
ORIGINATOR     = 

OBJECT_NAME    = TWILIGHT P
OBJECT_ID      = 2026-004P
CENTER_NAME    = EARTH
REF_FRAME      = TEME
TIME_SYSTEM    = UTC
MEAN_ELEMENT_THEORY = SGP/SGP4

EPOCH          = 2026-01-24T04:34:53.994144
MEAN_MOTION    = 14.87755956
ECCENTRICITY   = .0004149
INCLINATION    = 97.8002
RA_OF_ASC_NODE = 25.1480
ARG_OF_PERICENTER = 234.6260
MEAN_ANOMALY   = 125.4569

EPHEMERIS_TYPE = 0
CLASSIFICATION_TYPE = U
NORAD_CAT_ID   = 67376
ELEMENT_SET_NO = 999
REV_AT_EPOCH   = 188
BSTAR          = .57835E-3
MEAN_MOTION_DOT = .5224E-4
MEAN_MOTION_DDOT = 0

CCSDS_OMM_VERS = 2.0
CREATION_DATE  = 
ORIGINATOR     = 

OBJECT_NAME    = TWILIGHT Q
OBJECT_ID      = 2026-004Q
CENTER_NAME    = EARTH
REF_FRAME      = TEME
TIME_SYSTEM    = UTC
MEAN_ELEMENT_THEORY = SGP/SGP4

EPOCH          = 2026-01-24T04:33:00.556992
MEAN_MOTION    = 14.87825869
ECCENTRICITY   = .0002936
INCLINATION    = 97.8004
RA_OF_ASC_NODE = 25.1505
ARG_OF_PERICENTER = 239.2690
MEAN_ANOMALY   = 120.8237

EPHEMERIS_TYPE = 0
CLASSIFICATION_TYPE = U
NORAD_CAT_ID   = 67377
ELEMENT_SET_NO = 999
REV_AT_EPOCH   = 187
BSTAR          = -.37953E-2
MEAN_MOTION_DOT = -.3455E-3
MEAN_MOTION_DDOT = 0

CCSDS_OMM_VERS = 2.0
CREATION_DATE  = 
ORIGINATOR     = 

OBJECT_NAME    = TWILIGHT R
OBJECT_ID      = 2026-004R
CENTER_NAME    = EARTH
REF_FRAME      = TEME
TIME_SYSTEM    = UTC
MEAN_ELEMENT_THEORY = SGP/SGP4

EPOCH          = 2026-01-24T02:58:56.957376
MEAN_MOTION    = 14.87678397
ECCENTRICITY   = .000361
INCLINATION    = 97.7975
RA_OF_ASC_NODE = 25.0784
ARG_OF_PERICENTER = 246.7327
MEAN_ANOMALY   = 113.3509

EPHEMERIS_TYPE = 0
CLASSIFICATION_TYPE = U
NORAD_CAT_ID   = 67378
ELEMENT_SET_NO = 999
REV_AT_EPOCH   = 186
BSTAR          = .6514E-3
MEAN_MOTION_DOT = .588E-4
MEAN_MOTION_DDOT = 0

CCSDS_OMM_VERS = 2.0
CREATION_DATE  = 
ORIGINATOR     = 

OBJECT_NAME    = TWILIGHT S
OBJECT_ID      = 2026-004S
CENTER_NAME    = EARTH
REF_FRAME      = TEME
TIME_SYSTEM    = UTC
MEAN_ELEMENT_THEORY = SGP/SGP4

EPOCH          = 2026-01-24T04:35:39.215904
MEAN_MOTION    = 14.87689308
ECCENTRICITY   = .0004107
INCLINATION    = 97.7980
RA_OF_ASC_NODE = 25.1460
ARG_OF_PERICENTER = 241.4619
MEAN_ANOMALY   = 118.6184

EPHEMERIS_TYPE = 0
CLASSIFICATION_TYPE = U
NORAD_CAT_ID   = 67379
ELEMENT_SET_NO = 999
REV_AT_EPOCH   = 187
BSTAR          = .60816E-3
MEAN_MOTION_DOT = .5488E-4
MEAN_MOTION_DDOT = 0

