TWILIGHT F              
1 67368U 26004F   26024.19581347  .00007952  00000+0  88862-3 0  9991
2 67368  97.8021  25.1417 0006773 241.0857 118.9680 14.87202803  1884
TWILIGHT G              
1 67369U 26004G   26024.19517398  .00004905  00000+0  55032-3 0  9995
2 67369  97.7950  25.1413 0005854 256.5215 103.5349 14.87230837  1889
TWILIGHT H              
1 67370U 26004H   26024.19479693  .00005437  00000+0  60855-3 0  9992
2 67370  97.7950  25.1412 0005549 257.5834 102.4761 14.87282966  1885
TWILIGHT J              
1 67371U 26004J   26024.19207895  .00010392  00000+0  11467-2 0  9996
2 67371  97.7991  25.1456 0004619 240.4000 119.6757 14.87647762  1886
TWILIGHT K              
1 67372U 26004K   26024.12201443  .00004917  00000+0  54232-3 0  9997
2 67372  97.7969  25.0819 0002963 234.1198 125.9744 14.87932283  1872
TWILIGHT L              
1 67373U 26004L   26024.19257581  .00004681  00000+0  52159-3 0  9993
2 67373  97.7984  25.1448 0004603 245.6386 114.4350 14.87536694  1881
TWILIGHT M              
1 67374U 26004M   26024.18990926  .00005609  00000+0  61855-3 0  9994
2 67374  97.7968  25.1460 0003223 234.7053 125.3862 14.87879755  1882
TWILIGHT N              
1 67375U 26004N   26024.12243099  .00005760  00000+0  63466-3 0  9999
2 67375  97.8004  25.0842 0003770 228.1251 131.9644 14.87904751  1877
TWILIGHT P              
1 67376U 26004P   26024.19090271  .00005224  00000+0  57835-3 0  9997
2 67376  97.8002  25.1480 0004149 234.6260 125.4569 14.87755956  1884
TWILIGHT Q              
1 67377U 26004Q   26024.18958978 -.00034550  00000+0 -37953-2 0  9998
2 67377  97.8004  25.1505 0002936 239.2690 120.8237 14.87825869  1876
TWILIGHT R              
1 67378U 26004R   26024.12427034  .00005880  00000+0  65140-3 0  9999
2 67378  97.7975  25.0784 0003610 246.7327 113.3509 14.87678397  1861
TWILIGHT S              
1 67379U 26004S   26024.19142611  .00005488  00000+0  60816-3 0  9991
2 67379  97.7980  25.1460 0004107 241.4619 118.6184 14.87689308  1870
